NORAD_CAT_ID,OBJECT_NAME,OBJECT_TYPE,EPOCH,MEAN_MOTION,ECCENTRICITY,INCLINATION,RA_OF_ASC_NODE,ARG_OF_PERICENTER,MEAN_ANOMALY,BSTAR,MEAN_MOTION_DOT,MEAN_MOTION_DDOT,TLE_LINE0,TLE_LINE1,TLE_LINE2,SEMIMAJOR_AXIS,PERIOD,APOGEE,PERIGEE,DECAYED
53720.0,STARLINK-4642,PAYLOAD,2022-11-09 22:00:01,15.19559569,0.0001763,53.2166,311.8496,35.4391,346.8783,-0.057915,-0.0114974,0.0,0 STARLINK-4642,1 53720U 22107W   22313.91668981 -.01149740  00000-0 -57915-1 0  9994,2 53720  53.2166 311.8496 0001763  35.4391 346.8783 15.19559569  1304,6885.308000000001,94.764,508.387,505.959,0.0
53720.0,STARLINK-4642,PAYLOAD,2022-11-10 14:00:01,15.17992342,0.0001877,53.2159,308.8119,36.9916,32.2115,-0.06532,-0.01231643,0.0,0 STARLINK-4642,1 53720U 22107W   22314.58334491 -.01231643  00000-0 -65320-1 0  9997,2 53720  53.2159 308.8119 0001877  36.9916  32.2115 15.17992342  1302,6890.045999999999,94.862,513.2040000000002,510.61800000000005,0.0
53720.0,STARLINK-4642,PAYLOAD,2022-11-10 16:00:00,15.17732718,0.0001877,53.2166,308.4324,42.61,122.219,-0.061401,-0.01155441,0.0,0 STARLINK-4642,1 53720U 22107W   22314.66667824 -.01155441  00000-0 -61401-1 0  9992,2 53720  53.2166 308.4324 0001877  42.6100 122.2190 15.17732718 10529,6890.831999999999,94.878,513.99,511.403,0.0
53720.0,STARLINK-4642,PAYLOAD,2022-11-10 22:00:00,15.1711997,0.0001749,53.2161,307.2938,41.4422,49.813,-0.062193,-0.01150227,0.0,0 STARLINK-4642,1 53720U 22107W   22314.91667824 -.01150227  00000-0 -62193-1 0  9996,2 53720  53.2161 307.2938 0001749  41.4422  49.8130 15.17119970  1307,6892.687,94.917,515.758,513.346,0.0
53720.0,STARLINK-4642,PAYLOAD,2022-11-11 14:00:01,15.1551871,0.000196,53.2159,304.2677,39.8193,92.5355,-0.067357,-0.01186686,0.0,0 STARLINK-4642,1 53720U 22107W   22315.58334491 -.01186686  00000-0 -67357-1 0  9996,2 53720  53.2159 304.2677 0001960  39.8193  92.5355 15.15518710 10668,6897.541,95.017,520.758,518.054,0.0
53720.0,STARLINK-4642,PAYLOAD,2022-11-11 22:00:00,15.14712204,0.0001871,53.2161,302.7555,37.5008,113.9404,-0.0695549999999999,-0.01196664,0.0,0 STARLINK-4642,1 53720U 22107W   22315.91667824 -.01196664  00000-0 -69555-1 0  9991,2 53720  53.2161 302.7555 0001871  37.5008 113.9404 15.14712204  1307,6899.989000000001,95.068,523.145,520.563,0.0
53720.0,STARLINK-4642,PAYLOAD,2022-11-12 14:00:01,15.13088793,0.0001802,53.2158,299.7405,42.383,144.30100000000004,-0.07315,-0.01201521,0.0,0 STARLINK-4642,1 53720U 22107W   22316.58334491 -.01201521  00000-0 -73150-1 0  9991,2 53720  53.2158 299.7405 0001802  42.3830 144.3010 15.13088793 10818,6904.924,95.17,528.033,525.545,0.0
53720.0,STARLINK-4642,PAYLOAD,2022-11-12 22:00:00,15.1224945,0.0001852,53.216,298.2341,39.0434,163.8097,-0.072533,-0.01166583,0.0,0 STARLINK-4642,1 53720U 22107W   22316.91667824 -.01166583  00000-0 -72533-1 0  9999,2 53720  53.2160 298.2341 0001852  39.0434 163.8097 15.12249450  1305,6907.479,95.222,530.623,528.064,0.0
53720.0,STARLINK-4642,PAYLOAD,2022-11-13 06:00:02,15.11444354,0.0001797,53.2165,296.7326,48.1803,169.9092,-0.075059,-0.01179196,0.0,0 STARLINK-4642,1 53720U 22107W   22317.25002315 -.01179196  00000-0 -75059-1 0  9995,2 53720  53.2165 296.7326 0001797  48.1803 169.9092 15.11444354 10913,6909.931,95.273,533.038,530.555,0.0
53720.0,STARLINK-4642,PAYLOAD,2022-11-13 14:00:01,15.10633699,0.0001847,53.2159,295.2305,41.8586,190.3672,-0.077074,-0.01183435,0.0,0 STARLINK-4642,1 53720U 22107W   22317.58334491 -.01183435  00000-0 -77074-1 0  9994,2 53720  53.2159 295.2305 0001847  41.8586 190.3672 15.10633699  1307,6912.403,95.324,535.545,532.991,0.0
53720.0,STARLINK-4642,PAYLOAD,2022-11-13 22:00:00,15.09719766,0.0002814,53.216,293.7297,281.9929,323.4702,-0.05927,-0.00895907,0.0,0 STARLINK-4642,1 53720U 22107W   22317.91667824 -.00895907  00000-0 -59270-1 0  9991,2 53720  53.2160 293.7297 0002814 281.9929 323.4702 15.09719766 11015,6915.193,95.382,539.004,535.112,0.0
53720.0,STARLINK-4642,PAYLOAD,2022-11-14 14:00:01,15.08838401,0.0004923999999999,53.2173,290.7378,277.3017,352.0847,-0.00022336,-3.843e-05,0.0,0 STARLINK-4642,1 53720U 22107W   22318.58334491 -.00003843  00000-0 -22336-3 0  9991,2 53720  53.2173 290.7378 0004924 277.3017 352.0847 15.08838401 11113,6917.885,95.438,543.1569999999998,536.344,0.0
53720.0,STARLINK-4642,PAYLOAD,2022-11-14 22:00:00,15.08836371,0.0004876,53.2174,289.2404,276.3665,4.6132,8.3581e-05,1.041e-05,0.0,0 STARLINK-4642,1 53720U 22107W   22318.91667824  .00001041  00000-0  83581-4 0  9993,2 53720  53.2174 289.2404 0004876 276.3665   4.6132 15.08836371  1302,6917.891,95.438,543.13,536.383,0.0
53720.0,STARLINK-4642,PAYLOAD,2022-11-15 08:00:01,15.088216199999998,0.000202,53.2161,287.3652,39.316,346.1481,-0.001202,-0.00019358,0.0,0 STARLINK-4642,1 53720U 22107W   22319.33335648 -.00019358  00000-0 -12020-2 0  9996,2 53720  53.2161 287.3652 0002020  39.3160 346.1481 15.08821620 11233,6917.937,95.439,541.1990000000002,538.404,0.0
53720.0,STARLINK-4642,PAYLOAD,2022-11-15 14:00:01,15.08809332,0.0001866,53.216,286.2418,37.2325,266.8421,-0.001084,-0.00017484,0.0,0 STARLINK-4642,1 53720U 22107W   22319.58334491 -.00017484  00000-0 -10840-2 0  9994,2 53720  53.2160 286.2418 0001866  37.2325 266.8421 15.08809332  1302,6917.974,95.439,541.13,538.548,0.0
53720.0,STARLINK-4642,PAYLOAD,2022-11-15 22:00:00,15.0881642,0.000172,53.2162,284.7447,41.2997,274.3207,0.0028659,0.00045589,0.0,0 STARLINK-4642,1 53720U 22107W   22319.91667824  .00045589  00000-0  28659-2 0  9992,2 53720  53.2162 284.7447 0001720  41.2997 274.3207 15.08816420  1300,6917.9519999999975,95.439,541.007,538.628,0.0
53720.0,STARLINK-4642,PAYLOAD,2022-11-16 06:00:00,15.08831772,0.000196,53.2161,283.2498,36.8879,290.322,0.0012544,0.00019728,0.0,0 STARLINK-4642,1 53720U 22107W   22320.25001157  .00019728  00000-0  12544-2 0  9994,2 53720  53.2161 283.2498 0001960  36.8879 290.3220 15.08831772 11361,6917.906,95.438,541.126,538.415,0.0
53720.0,STARLINK-4642,PAYLOAD,2022-11-16 14:00:01,15.08760314,0.0001979,53.2165,281.7559,40.8082,298.0731,0.017709,0.00292836,0.0,0 STARLINK-4642,1 53720U 22107W   22320.58335648  .00292836  00000-0  17709-1 0  9995,2 53720  53.2165 281.7559 0001979  40.8082 298.0731 15.08760314  1305,6918.124,95.443,541.3580000000002,538.62,0.0
53720.0,STARLINK-4642,PAYLOAD,2022-11-16 20:00:01,15.09066492,0.000185,53.2168,280.6343,47.1133,210.3588,-0.017551,-0.00270952,0.0,0 STARLINK-4642,1 53720U 22107W   22320.83334491 -.00270952  00000-0 -17551-1 0  9990,2 53720  53.2168 280.6343 0001850  47.1133 210.3588 15.09066492 11453,6917.188,95.423,540.3330000000002,537.774,0.0
53720.0,STARLINK-4642,PAYLOAD,2022-11-16 22:00:08,15.0905798,0.000195,53.2171,280.2605,47.3803,303.4737,-0.020748,-0.003181,0.0,0 STARLINK-4642,1 53720U 22107W   22320.91675926 -.00318100  00000-0 -20748-1 0  9990,2 53720  53.2171 280.2605 0001950  47.3803 303.4737 15.09057980  1306,6917.214,95.424,540.428,537.73,0.0
53720.0,STARLINK-4642,PAYLOAD,2022-11-17 06:00:00,15.08843753,0.0002013,53.216,278.7609,41.4134,320.6612,0.0016848,0.0002663,0.0,0 STARLINK-4642,1 53720U 22107W   22321.25001157  .00026630  00000-0  16848-2 0  9996,2 53720  53.2160 278.7609 0002013  41.4134 320.6612 15.08843753 11521,6917.869000000002,95.437,541.126,538.341,0.0
53720.0,STARLINK-4642,PAYLOAD,2022-11-17 14:00:01,15.08875021,0.0001853,53.2156,277.2632,41.4331,332.2464,-0.003855,-0.00061179,0.0,0 STARLINK-4642,1 53720U 22107W   22321.58334491 -.00061179  00000-0 -38550-2 0  9995,2 53720  53.2156 277.2632 0001853  41.4331 332.2464 15.08875021  1308,6917.773,95.435,540.92,538.356,0.0
53720.0,STARLINK-4642,PAYLOAD,2022-11-17 22:00:00,15.08857281,0.0001719,53.2158,275.7665,44.0346,341.2482,-0.0010511,-0.00016985,0.0,0 STARLINK-4642,1 53720U 22107W   22321.91667824 -.00016985  00000-0 -10511-2 0  9993,2 53720  53.2158 275.7665 0001719  44.0346 341.2482 15.08857281  1303,6917.828,95.436,540.882,538.503,0.0
53720.0,STARLINK-4642,PAYLOAD,2022-11-18 14:00:01,15.08839996,0.000176,53.2152,272.7738,40.5916,7.8849,-0.00059453,-9.738e-05,0.0,0 STARLINK-4642,1 53720U 22107W   22322.58334491 -.00009738  00000-0 -59453-3 0  9995,2 53720  53.2152 272.7738 0001760  40.5916   7.8849 15.08839996  1300,6917.88,95.438,540.9630000000002,538.528,0.0
53720.0,STARLINK-4642,PAYLOAD,2022-11-18 22:00:00,15.08852539,0.0001705,53.2152,271.2773,44.2658,15.7965,6.7051e-05,7.8e-06,0.0,0 STARLINK-4642,1 53720U 22107W   22322.91667824  .00000780  00000-0  67051-4 0  9991,2 53720  53.2152 271.2773 0001705  44.2658  15.7965 15.08852539  1301,6917.842,95.437,540.887,538.528,0.0
53720.0,STARLINK-4642,PAYLOAD,2022-11-19 08:00:01,15.08822929,0.0001867,53.2148,269.4081,36.6099,127.9751,0.002245,0.00035606,0.0,0 STARLINK-4642,1 53720U 22107W   22323.33334491  .00035606  00000-0  22450-2 0  9996,2 53720  53.2148 269.4081 0001867  36.6099 127.9751 15.08822929 11838,6917.933000000001,95.439,541.089,538.506,0.0
53720.0,STARLINK-4642,PAYLOAD,2022-11-19 14:00:01,15.08840109,0.0001712,53.2149,268.2844,39.8027,43.4731,-0.00010241,-1.918e-05,0.0,0 STARLINK-4642,1 53720U 22107W   22323.58334491 -.00001918  00000-0 -10241-3 0  9990,2 53720  53.2149 268.2844 0001712  39.8027  43.4731 15.08840109  1309,6917.88,95.438,540.929,538.561,0.0
53720.0,STARLINK-4642,PAYLOAD,2022-11-19 22:00:00,15.0887239,0.0001695,53.2149,266.7878,42.6869,52.1767,-0.0029931,-0.00047651,0.0,0 STARLINK-4642,1 53720U 22107W   22323.91667824 -.00047651  00000-0 -29931-2 0  9995,2 53720  53.2149 266.7878 0001695  42.6869  52.1767 15.08872390 11927,6917.781,95.436,540.819,538.474,0.0
53720.0,STARLINK-4642,PAYLOAD,2022-11-20 14:00:01,15.08818121,0.0001795,53.215,263.7948,41.5284,76.5422,-0.00068761,-0.00011208,0.0,0 STARLINK-4642,1 53720U 22107W   22324.58334491 -.00011208  00000-0 -68761-3 0  9994,2 53720  53.2150 263.7948 0001795  41.5284  76.5422 15.08818121  1305,6917.946999999999,95.439,541.054,538.57,0.0
